STARLINK-5552           
1 56339U 23058Y   25294.80499515 -.00000873  00000+0 -63373-4 0  9992
2 56339  97.6017 294.2556 0003833  54.0966 306.0614 15.01266741137293
STARLINK-5540           
1 56340U 23058Z   25294.78235397  .00036826  00000+0  25798-2 0  9999
2 56340  97.6015 294.2818 0002196 102.4388 257.7084 15.05115488137299
STARLINK-5543           
1 56341U 23058AA  25294.80870716  .00000558  00000+0  47985-4 0  9990
2 56341  97.6025 294.2511 0004329  66.8321 293.3359 15.01261568137288
STARLINK-5955           
1 56342U 23058AB  25294.75772576 -.00009827  00000+0 -67917-3 0  9996
2 56342  97.6021 294.3129 0001214  98.6381 261.4983 15.05572548137297
STARLINK-5976           
1 56343U 23058AC  25294.78514948  .00050976  00000+0  35512-2 0  9991
2 56343  97.6018 294.2787 0001641  90.8102 269.3313 15.05233637137299
STARLINK-5974           
1 56344U 23058AD  25294.81304638  .00003561  00000+0  25092-3 0  9990
2 56344  97.6026 294.3922 0001606  96.4454 263.6956 15.05640464137306
STARLINK-5979           
1 56345U 23058AE  25294.79759213 -.00000513  00000+0 -35371-4 0  9999
2 56345  97.6013 294.2646 0002133  58.2529 301.8903 15.01264064137299
STARLINK-5837           
1 56346U 23058AF  25294.80129942 -.00000237  00000+0 -13877-4 0  9992
2 56346  97.6020 294.2604 0003059  44.6286 315.5184 15.01259152137294
STARLINK-5829           
1 56347U 23058AG  25294.76316623  .00009913  00000+0  68988-3 0  9992
2 56347  97.6034 294.3071 0001309  84.1606 275.9770 15.05671097137290
STARLINK-5888           
1 56348U 23058AH  25294.80339648 -.00000347  00000+0 -22430-4 0  9997
2 56348  97.6019 294.2578 0003796  65.7685 294.3936 15.01262395137291
STARLINK-5887           
1 56349U 23058AJ  25294.79016397  .00002580  00000+0  20520-3 0  9995
2 56349  97.6008 294.2702 0002551  86.1824 273.9692 15.01282335137297
STARLINK-5886           
1 56350U 23058AK  25294.83335647  .00050057  00000+0  34513-2 0  9992
2 56350  97.6028 294.3975 0001701  87.9035 337.2827 15.05625183  5815
STARLINK-5891           
1 56351U 23058AL  25294.83335647  .00047912  00000+0  33768-2 0  9990
2 56351  97.6017 294.3426 0001645  71.2815 228.0425 15.04816750  5816
STARLINK-5885           
1 56352U 23058AM  25294.79388900  .00000435  00000+0  38389-4 0  9991
2 56352  97.6006 294.2671 0002157  74.3382 285.8080 15.01262179137291
STARLINK-5874           
1 56353U 23058AN  25294.57541198  .00000444  00000+0  39123-4 0  9995
2 56353  97.6015 294.0897 0001501 152.2564 207.8741 15.01263019137269
STARLINK-5877           
1 56354U 23058AP  25294.79487486  .00106694  00000+0  79925-2 0  9995
2 56354  97.6016 294.2662 0001613 102.0129 258.1277 15.02173999137291
