[{"OBJECT_NAME":"STARLINK-5552","OBJECT_ID":"2023-058Y","EPOCH":"2025-10-21T19:19:11.580960","MEAN_MOTION":15.01266741,"ECCENTRICITY":0.0003833,"INCLINATION":97.6017,"RA_OF_ASC_NODE":294.2556,"ARG_OF_PERICENTER":54.0966,"MEAN_ANOMALY":306.0614,"EPHEMERIS_TYPE":0,"CLASSIFICATION_TYPE":"U","NORAD_CAT_ID":56339,"ELEMENT_SET_NO":999,"REV_AT_EPOCH":13729,"BSTAR":-6.3373e-5,"MEAN_MOTION_DOT":-8.73e-6,"MEAN_MOTION_DDOT":0},{"OBJECT_NAME":"STARLINK-5540","OBJECT_ID":"2023-058Z","EPOCH":"2025-10-21T18:46:35.383008","MEAN_MOTION":15.05115488,"ECCENTRICITY":0.0002196,"INCLINATION":97.6015,"RA_OF_ASC_NODE":294.2818,"ARG_OF_PERICENTER":102.4388,"MEAN_ANOMALY":257.7084,"EPHEMERIS_TYPE":0,"CLASSIFICATION_TYPE":"U","NORAD_CAT_ID":56340,"ELEMENT_SET_NO":999,"REV_AT_EPOCH":13729,"BSTAR":0.0025798,"MEAN_MOTION_DOT":0.00036826,"MEAN_MOTION_DDOT":0},{"OBJECT_NAME":"STARLINK-5543","OBJECT_ID":"2023-058AA","EPOCH":"2025-10-21T19:24:32.298624","MEAN_MOTION":15.01261568,"ECCENTRICITY":0.0004329,"INCLINATION":97.6025,"RA_OF_ASC_NODE":294.2511,"ARG_OF_PERICENTER":66.8321,"MEAN_ANOMALY":293.3359,"EPHEMERIS_TYPE":0,"CLASSIFICATION_TYPE":"U","NORAD_CAT_ID":56341,"ELEMENT_SET_NO":999,"REV_AT_EPOCH":13728,"BSTAR":4.7985e-5,"MEAN_MOTION_DOT":5.58e-6,"MEAN_MOTION_DDOT":0},{"OBJECT_NAME":"STARLINK-5955","OBJECT_ID":"2023-058AB","EPOCH":"2025-10-21T18:11:07.505664","MEAN_MOTION":15.05572548,"ECCENTRICITY":0.0001214,"INCLINATION":97.6021,"RA_OF_ASC_NODE":294.3129,"ARG_OF_PERICENTER":98.6381,"MEAN_ANOMALY":261.4983,"EPHEMERIS_TYPE":0,"CLASSIFICATION_TYPE":"U","NORAD_CAT_ID":56342,"ELEMENT_SET_NO":999,"REV_AT_EPOCH":13729,"BSTAR":-0.00067917,"MEAN_MOTION_DOT":-9.827e-5,"MEAN_MOTION_DDOT":0},{"OBJECT_NAME":"STARLINK-5976","OBJECT_ID":"2023-058AC","EPOCH":"2025-10-21T18:50:36.915072","MEAN_MOTION":15.05233637,"ECCENTRICITY":0.0001641,"INCLINATION":97.6018,"RA_OF_ASC_NODE":294.2787,"ARG_OF_PERICENTER":90.8102,"MEAN_ANOMALY":269.3313,"EPHEMERIS_TYPE":0,"CLASSIFICATION_TYPE":"U","NORAD_CAT_ID":56343,"ELEMENT_SET_NO":999,"REV_AT_EPOCH":13729,"BSTAR":0.0035512,"MEAN_MOTION_DOT":0.00050976,"MEAN_MOTION_DDOT":0},{"OBJECT_NAME":"STARLINK-5974","OBJECT_ID":"2023-058AD","EPOCH":"2025-10-21T19:30:47.207232","MEAN_MOTION":15.05640464,"ECCENTRICITY":0.0001606,"INCLINATION":97.6026,"RA_OF_ASC_NODE":294.3922,"ARG_OF_PERICENTER":96.4454,"MEAN_ANOMALY":263.6956,"EPHEMERIS_TYPE":0,"CLASSIFICATION_TYPE":"U","NORAD_CAT_ID":56344,"ELEMENT_SET_NO":999,"REV_AT_EPOCH":13730,"BSTAR":0.00025092,"MEAN_MOTION_DOT":3.561e-5,"MEAN_MOTION_DDOT":0},{"OBJECT_NAME":"STARLINK-5979","OBJECT_ID":"2023-058AE","EPOCH":"2025-10-21T19:08:31.960032","MEAN_MOTION":15.01264064,"ECCENTRICITY":0.0002133,"INCLINATION":97.6013,"RA_OF_ASC_NODE":294.2646,"ARG_OF_PERICENTER":58.2529,"MEAN_ANOMALY":301.8903,"EPHEMERIS_TYPE":0,"CLASSIFICATION_TYPE":"U","NORAD_CAT_ID":56345,"ELEMENT_SET_NO":999,"REV_AT_EPOCH":13729,"BSTAR":-3.5371e-5,"MEAN_MOTION_DOT":-5.13e-6,"MEAN_MOTION_DDOT":0},{"OBJECT_NAME":"STARLINK-5837","OBJECT_ID":"2023-058AF","EPOCH":"2025-10-21T19:13:52.269888","MEAN_MOTION":15.01259152,"ECCENTRICITY":0.0003059,"INCLINATION":97.602,"RA_OF_ASC_NODE":294.2604,"ARG_OF_PERICENTER":44.6286,"MEAN_ANOMALY":315.5184,"EPHEMERIS_TYPE":0,"CLASSIFICATION_TYPE":"U","NORAD_CAT_ID":56346,"ELEMENT_SET_NO":999,"REV_AT_EPOCH":13729,"BSTAR":-1.3877e-5,"MEAN_MOTION_DOT":-2.37e-6,"MEAN_MOTION_DDOT":0},{"OBJECT_NAME":"STARLINK-5829","OBJECT_ID":"2023-058AG","EPOCH":"2025-10-21T18:18:57.562272","MEAN_MOTION":15.05671097,"ECCENTRICITY":0.0001309,"INCLINATION":97.6034,"RA_OF_ASC_NODE":294.3071,"ARG_OF_PERICENTER":84.1606,"MEAN_ANOMALY":275.977,"EPHEMERIS_TYPE":0,"CLASSIFICATION_TYPE":"U","NORAD_CAT_ID":56347,"ELEMENT_SET_NO":999,"REV_AT_EPOCH":13729,"BSTAR":0.00068988,"MEAN_MOTION_DOT":9.913e-5,"MEAN_MOTION_DDOT":0},{"OBJECT_NAME":"STARLINK-5888","OBJECT_ID":"2023-058AH","EPOCH":"2025-10-21T19:16:53.455872","MEAN_MOTION":15.01262395,"ECCENTRICITY":0.0003796,"INCLINATION":97.6019,"RA_OF_ASC_NODE":294.2578,"ARG_OF_PERICENTER":65.7685,"MEAN_ANOMALY":294.3936,"EPHEMERIS_TYPE":0,"CLASSIFICATION_TYPE":"U","NORAD_CAT_ID":56348,"ELEMENT_SET_NO":999,"REV_AT_EPOCH":13729,"BSTAR":-2.243e-5,"MEAN_MOTION_DOT":-3.47e-6,"MEAN_MOTION_DDOT":0},{"OBJECT_NAME":"STARLINK-5887","OBJECT_ID":"2023-058AJ","EPOCH":"2025-10-21T18:57:50.167008","MEAN_MOTION":15.01282335,"ECCENTRICITY":0.0002551,"INCLINATION":97.6008,"RA_OF_ASC_NODE":294.2702,"ARG_OF_PERICENTER":86.1824,"MEAN_ANOMALY":273.9692,"EPHEMERIS_TYPE":0,"CLASSIFICATION_TYPE":"U","NORAD_CAT_ID":56349,"ELEMENT_SET_NO":999,"REV_AT_EPOCH":13729,"BSTAR":0.0002052,"MEAN_MOTION_DOT":2.58e-5,"MEAN_MOTION_DDOT":0},{"OBJECT_NAME":"STARLINK-5886","OBJECT_ID":"2023-058AK","EPOCH":"2025-10-21T20:00:01.999008","MEAN_MOTION":15.05625183,"ECCENTRICITY":0.0001701,"INCLINATION":97.6028,"RA_OF_ASC_NODE":294.3975,"ARG_OF_PERICENTER":87.9035,"MEAN_ANOMALY":337.2827,"EPHEMERIS_TYPE":0,"CLASSIFICATION_TYPE":"U","NORAD_CAT_ID":56350,"ELEMENT_SET_NO":999,"REV_AT_EPOCH":581,"BSTAR":0.0034513,"MEAN_MOTION_DOT":0.00050057,"MEAN_MOTION_DDOT":0},{"OBJECT_NAME":"STARLINK-5891","OBJECT_ID":"2023-058AL","EPOCH":"2025-10-21T20:00:01.999008","MEAN_MOTION":15.0481675,"ECCENTRICITY":0.0001645,"INCLINATION":97.6017,"RA_OF_ASC_NODE":294.3426,"ARG_OF_PERICENTER":71.2815,"MEAN_ANOMALY":228.0425,"EPHEMERIS_TYPE":0,"CLASSIFICATION_TYPE":"U","NORAD_CAT_ID":56351,"ELEMENT_SET_NO":999,"REV_AT_EPOCH":581,"BSTAR":0.0033768,"MEAN_MOTION_DOT":0.00047912,"MEAN_MOTION_DDOT":0},{"OBJECT_NAME":"STARLINK-5885","OBJECT_ID":"2023-058AM","EPOCH":"2025-10-21T19:03:12.009600","MEAN_MOTION":15.01262179,"ECCENTRICITY":0.0002157,"INCLINATION":97.6006,"RA_OF_ASC_NODE":294.2671,"ARG_OF_PERICENTER":74.3382,"MEAN_ANOMALY":285.808,"EPHEMERIS_TYPE":0,"CLASSIFICATION_TYPE":"U","NORAD_CAT_ID":56352,"ELEMENT_SET_NO":999,"REV_AT_EPOCH":13729,"BSTAR":3.8389e-5,"MEAN_MOTION_DOT":4.35e-6,"MEAN_MOTION_DDOT":0},{"OBJECT_NAME":"STARLINK-5874","OBJECT_ID":"2023-058AN","EPOCH":"2025-10-21T13:48:35.595072","MEAN_MOTION":15.01263019,"ECCENTRICITY":0.0001501,"INCLINATION":97.6015,"RA_OF_ASC_NODE":294.0897,"ARG_OF_PERICENTER":152.2564,"MEAN_ANOMALY":207.8741,"EPHEMERIS_TYPE":0,"CLASSIFICATION_TYPE":"U","NORAD_CAT_ID":56353,"ELEMENT_SET_NO":999,"REV_AT_EPOCH":13726,"BSTAR":3.9123e-5,"MEAN_MOTION_DOT":4.44e-6,"MEAN_MOTION_DDOT":0},{"OBJECT_NAME":"STARLINK-5877","OBJECT_ID":"2023-058AP","EPOCH":"2025-10-21T19:04:37.187904","MEAN_MOTION":15.02173999,"ECCENTRICITY":0.0001613,"INCLINATION":97.6016,"RA_OF_ASC_NODE":294.2662,"ARG_OF_PERICENTER":102.0129,"MEAN_ANOMALY":258.1277,"EPHEMERIS_TYPE":0,"CLASSIFICATION_TYPE":"U","NORAD_CAT_ID":56354,"ELEMENT_SET_NO":999,"REV_AT_EPOCH":13729,"BSTAR":0.0079925,"MEAN_MOTION_DOT":0.00106694,"MEAN_MOTION_DDOT":0}]
